METHANESAT              
1 59101U 24043D   25289.60649554  .00004537  00000+0  40707-3 0  9993
2 59101  97.8152  55.2405 0011575 103.3009 256.9504 14.96204046 88201
GOSAT-GW (IBUKI GW)     
1 64694U 25141A   25289.37408072  .00001433  00000+0  26088-3 0  9996
2 64694  98.0327 225.9532 0001404  83.6555 276.4809 14.67572336 16084
GHGSAT-C1               
1 46278U 20061G   25290.15756771  .00036347  00000+0  53423-3 0  9995
2 46278  97.2388   4.9687 0001764 178.7926 181.3333 15.55395422285512
GHGSAT-C12              
1 64529U 25135B   25290.14684613  .00007357  00000+0  36533-3 0  9997
2 64529  97.4574  42.8053 0004005 308.9525  51.1352 15.17965046 17927
GHGSAT-C13              
1 64548U 25135W   25290.20355039  .00007011  00000+0  33996-3 0  9999
2 64548  97.4600  43.0689 0000782 156.1602 203.9668 15.18820977 17946
GHGSAT-C2               
1 47509U 21006DA  25290.10058770  .00010894  00000+0  33311-3 0  9995
2 47509  97.2546 336.5721 0004688 338.8349  21.2700 15.34019751262537
GHGSAT-C3               
1 52737U 22057F   25290.13793625  .00012654  00000+0  43585-3 0  9999
2 52737  97.6287  62.9408 0005462 259.7954 100.2670 15.30163932188312
GHGSAT-C4               
1 52746U 22057Q   25290.15669397  .00012601  00000+0  43410-3 0  9998
2 52746  97.6214  62.0344 0005833 242.9632 117.1013 15.30155527188321
GHGSAT-C5               
1 52744U 22057N   25290.17352339  .00012773  00000+0  44009-3 0  9998
2 52744  97.6375  64.2686 0006501 255.6465 104.4053 15.30145252188325
GHGSAT-C6               
1 56204U 23054AC  25290.23474696  .00020366  00000+0  43642-3 0  9998
2 56204  97.3171 191.9716 0007874 189.4265 170.6838 15.44756885140845
GHGSAT-C7               
1 56209U 23054AH  25290.17008260  .00017329  00000+0  38716-3 0  9997
2 56209  97.3131 191.2864 0008115 184.9860 175.1309 15.43550313140821
GHGSAT-C8               
1 56186U 23054J   25290.20866304  .00021491  00000+0  46036-3 0  9995
2 56186  97.3140 191.3961 0004558 204.1958 155.9077 15.44778046140828
SENTINEL-5P             
1 42969U 17064A   25289.60243191  .00000133  00000+0  84187-4 0  9998
2 42969  98.7684 228.7208 0001016  92.2416 267.8876 14.19558973415001
ENMAP                   
1 52159U 22033C   25290.23341543  .00000930  00000+0  14585-3 0  9992
2 52159  97.9779  10.9640 0001269  76.7738 283.3612 14.74941121190849
PRISMA                  
1 44072U 19015A   25290.14795154  .00001642  00000+0  20531-3 0  9993
2 44072  97.8756   3.4025 0001019 102.9313 257.2014 14.83655184356016
SENTINEL-2A             
1 40697U 15028A   25288.73913546  .00000219  00000+0  10020-3 0  9992
2 40697  98.5682   2.0887 0001164  96.3563 263.7753 14.30824369538778
SENTINEL-2B             
1 42063U 17013A   25290.20051604  .00000236  00000+0  10655-3 0  9993
2 42063  98.5685   3.4651 0000971  93.0834 267.0460 14.30815954449890
SENTINEL-2C             
1 60989U 24157A   25290.09574105  .00000249  00000+0  11164-3 0  9990
2 60989  98.5661   3.4222 0000972  94.4937 265.6357 14.30827941 58226
LANDSAT 8               
1 39084U 13008A   25290.14135450  .00000595  00000+0  14211-3 0  9997
2 39084  98.2137 359.0304 0001241  91.9117 268.2224 14.57117263662508
LANDSAT 9               
1 49260U 21088A   25290.17577252  .00000662  00000+0  15704-3 0  9997
2 49260  98.2159 359.0868 0001315  88.1524 271.9825 14.57112098215611
